INTELSAT 906 (IS-906)   
1 27513U 02041A   26032.86969349  .00000001  00000+0  00000+0 0  9991
2 27513   5.4587  74.6066 0004557 219.8164 214.8757  1.00271643 85674
NIMIQ 2                 
1 27632U 02062A   26032.61161160 -.00000080  00000+0  00000+0 0  9992
2 27632   9.1320  58.3168 0006420 258.7105 285.7393  1.00272276 42828
USA 167                 
1 27691U 03008A   26032.10987910 -.00000007  00000+0  00000+0 0  9990
2 27691  10.6910  44.6140 0005772 275.3755  89.2082  1.00274509  5415
USA 169 (MILSTAR-2 4)   
1 27711U 03012A   26032.81155911 -.00000207  00000+0  00000+0 0  9996
2 27711  12.1435  30.9258 0098399   2.2568 183.1298  1.00272513 31595
ASIASAT 4               
1 27718U 03014A   26032.80514932 -.00000234  00000+0  00000+0 0  9996
2 27718   4.3582  77.4743 0002733 235.2885 256.6383  1.00271164 43944
HELLAS-SAT 2            
1 27811U 03020A   26032.91651661 -.00000096  00000+0  00000+0 0  9996
2 27811   7.0181  69.5113 0009711 221.0136 161.4678  1.00271406 41498
THURAYA-2               
1 27825U 03026A   26032.64194509  .00000115  00000+0  00000+0 0  9991
2 27825   8.6272  32.5052 0003400 290.2702  84.1652  1.00273144 82993
OPTUS C1                
1 27831U 03028B   26032.87803640 -.00000164  00000+0  00000+0 0  9993
2 27831   6.5511  71.0614 0006118 245.5934 287.1631  1.00268733 51709
USA 170                 
1 27875U 03040A   26032.70937212  .00000115  00000+0  00000+0 0  9995
2 27875  10.1952  49.2151 0002241 227.7905 134.5156  1.00267014 31642
GALAXY 13 (HORIZONS-1)  
1 27954U 03044A   26032.74621567  .00000122  00000+0  00000+0 0  9992
2 27954   1.0679  85.8015 0002081 226.9112 297.8323  1.00271037 45210
YAMAL 202               
1 28089U 03053A   26032.87959640 -.00000093  00000+0  00000+0 0  9990
2 28089   6.0009  72.6030 0006387 217.0324 322.5441  1.00271556 81349
UFO 11 (USA 174)        
1 28117U 03057A   26032.86656931 -.00000113  00000+0  00000+0 0  9995
2 28117   8.7938  34.4723 0003977 264.5064 220.4333  1.00272448 81095
USA 176 (DSP 22)        
1 28158U 04004A   26032.41990220 -.00000169  00000+0  00000+0 0  9997
2 28158  11.8770  27.0577 0003007 260.9777 258.1060  1.00275573 31574
ABS-4 (MOBISAT-1)       
1 28184U 04007A   26032.74816450  .00000028  00000+0  00000+0 0  9990
2 28184   5.6986  73.6745 0005332 241.2590 147.3154  1.00269923 50986
EUTELSAT 139 WEST A     
1 28187U 04008A   26032.68475866 -.00000206  00000+0  00000+0 0  9998
2 28187   5.4856  73.6561 0002601 152.4333  52.2422  1.00842211 79994
AMC-11                  
1 28252U 04017A   26032.89658317 -.00000059  00000+0  00000+0 0  9994
2 28252   0.0490 275.0730 0003267  39.4037  29.2603  1.00271791 79503
INTELSAT 10-02          
1 28358U 04022A   26032.91833661 -.00000021  00000+0  00000+0 0  9996
2 28358   0.0153  91.5029 0000875 254.6658 115.5491  1.00269531 79200
