[{"OBJECT_NAME":"INTELSAT 906 (IS-906)","OBJECT_ID":"2002-041A","EPOCH":"2026-02-01T20:52:21.517536","MEAN_MOTION":1.00271643,"ECCENTRICITY":0.0004557,"INCLINATION":5.4587,"RA_OF_ASC_NODE":74.6066,"ARG_OF_PERICENTER":219.8164,"MEAN_ANOMALY":214.8757,"EPHEMERIS_TYPE":0,"CLASSIFICATION_TYPE":"U","NORAD_CAT_ID":27513,"ELEMENT_SET_NO":999,"REV_AT_EPOCH":8567,"BSTAR":0,"MEAN_MOTION_DOT":1.0e-8,"MEAN_MOTION_DDOT":0},{"OBJECT_NAME":"NIMIQ 2","OBJECT_ID":"2002-062A","EPOCH":"2026-02-01T14:40:43.242240","MEAN_MOTION":1.00272276,"ECCENTRICITY":0.00064208,"INCLINATION":9.132,"RA_OF_ASC_NODE":58.3168,"ARG_OF_PERICENTER":258.7105,"MEAN_ANOMALY":285.7393,"EPHEMERIS_TYPE":0,"CLASSIFICATION_TYPE":"U","NORAD_CAT_ID":27632,"ELEMENT_SET_NO":999,"REV_AT_EPOCH":4282,"BSTAR":0,"MEAN_MOTION_DOT":-8.0e-7,"MEAN_MOTION_DDOT":0},{"OBJECT_NAME":"USA 167","OBJECT_ID":"2003-008A","EPOCH":"2026-02-01T02:38:13.554240","MEAN_MOTION":1.00274509,"ECCENTRICITY":0.00057726,"INCLINATION":10.691,"RA_OF_ASC_NODE":44.614,"ARG_OF_PERICENTER":275.3755,"MEAN_ANOMALY":89.2082,"EPHEMERIS_TYPE":0,"CLASSIFICATION_TYPE":"U","NORAD_CAT_ID":27691,"ELEMENT_SET_NO":999,"REV_AT_EPOCH":541,"BSTAR":0,"MEAN_MOTION_DOT":-7.0e-8,"MEAN_MOTION_DDOT":0},{"OBJECT_NAME":"USA 169 (MILSTAR-2 4)","OBJECT_ID":"2003-012A","EPOCH":"2026-02-01T19:28:38.707104","MEAN_MOTION":1.00272513,"ECCENTRICITY":0.00983999,"INCLINATION":12.1435,"RA_OF_ASC_NODE":30.9258,"ARG_OF_PERICENTER":2.2568,"MEAN_ANOMALY":183.1298,"EPHEMERIS_TYPE":0,"CLASSIFICATION_TYPE":"U","NORAD_CAT_ID":27711,"ELEMENT_SET_NO":999,"REV_AT_EPOCH":3159,"BSTAR":0,"MEAN_MOTION_DOT":-2.07e-6,"MEAN_MOTION_DDOT":0},{"OBJECT_NAME":"ASIASAT 4","OBJECT_ID":"2003-014A","EPOCH":"2026-02-01T19:19:24.901248","MEAN_MOTION":1.00271164,"ECCENTRICITY":0.00027333,"INCLINATION":4.3582,"RA_OF_ASC_NODE":77.4743,"ARG_OF_PERICENTER":235.2885,"MEAN_ANOMALY":256.6383,"EPHEMERIS_TYPE":0,"CLASSIFICATION_TYPE":"U","NORAD_CAT_ID":27718,"ELEMENT_SET_NO":999,"REV_AT_EPOCH":4394,"BSTAR":0,"MEAN_MOTION_DOT":-2.34e-6,"MEAN_MOTION_DDOT":0},{"OBJECT_NAME":"HELLAS-SAT 2","OBJECT_ID":"2003-020A","EPOCH":"2026-02-01T21:59:47.035104","MEAN_MOTION":1.00271406,"ECCENTRICITY":0.00097115,"INCLINATION":7.0181,"RA_OF_ASC_NODE":69.5113,"ARG_OF_PERICENTER":221.0136,"MEAN_ANOMALY":161.4678,"EPHEMERIS_TYPE":0,"CLASSIFICATION_TYPE":"U","NORAD_CAT_ID":27811,"ELEMENT_SET_NO":999,"REV_AT_EPOCH":4149,"BSTAR":0,"MEAN_MOTION_DOT":-9.6e-7,"MEAN_MOTION_DDOT":0},{"OBJECT_NAME":"THURAYA-2","OBJECT_ID":"2003-026A","EPOCH":"2026-02-01T15:24:24.055776","MEAN_MOTION":1.00273144,"ECCENTRICITY":0.00034001,"INCLINATION":8.6272,"RA_OF_ASC_NODE":32.5052,"ARG_OF_PERICENTER":290.2702,"MEAN_ANOMALY":84.1652,"EPHEMERIS_TYPE":0,"CLASSIFICATION_TYPE":"U","NORAD_CAT_ID":27825,"ELEMENT_SET_NO":999,"REV_AT_EPOCH":8299,"BSTAR":0,"MEAN_MOTION_DOT":1.15e-6,"MEAN_MOTION_DDOT":0},{"OBJECT_NAME":"OPTUS C1","OBJECT_ID":"2003-028B","EPOCH":"2026-02-01T21:04:22.344960","MEAN_MOTION":1.00268733,"ECCENTRICITY":0.00061181,"INCLINATION":6.5511,"RA_OF_ASC_NODE":71.0614,"ARG_OF_PERICENTER":245.5934,"MEAN_ANOMALY":287.1631,"EPHEMERIS_TYPE":0,"CLASSIFICATION_TYPE":"U","NORAD_CAT_ID":27831,"ELEMENT_SET_NO":999,"REV_AT_EPOCH":5170,"BSTAR":0,"MEAN_MOTION_DOT":-1.64e-6,"MEAN_MOTION_DDOT":0},{"OBJECT_NAME":"USA 170","OBJECT_ID":"2003-040A","EPOCH":"2026-02-01T17:01:29.751168","MEAN_MOTION":1.00267014,"ECCENTRICITY":0.00022415,"INCLINATION":10.1952,"RA_OF_ASC_NODE":49.2151,"ARG_OF_PERICENTER":227.7905,"MEAN_ANOMALY":134.5156,"EPHEMERIS_TYPE":0,"CLASSIFICATION_TYPE":"U","NORAD_CAT_ID":27875,"ELEMENT_SET_NO":999,"REV_AT_EPOCH":3164,"BSTAR":0,"MEAN_MOTION_DOT":1.15e-6,"MEAN_MOTION_DDOT":0},{"OBJECT_NAME":"GALAXY 13 (HORIZONS-1)","OBJECT_ID":"2003-044A","EPOCH":"2026-02-01T17:54:33.033888","MEAN_MOTION":1.00271037,"ECCENTRICITY":0.00020814,"INCLINATION":1.0679,"RA_OF_ASC_NODE":85.8015,"ARG_OF_PERICENTER":226.9112,"MEAN_ANOMALY":297.8323,"EPHEMERIS_TYPE":0,"CLASSIFICATION_TYPE":"U","NORAD_CAT_ID":27954,"ELEMENT_SET_NO":999,"REV_AT_EPOCH":4521,"BSTAR":0,"MEAN_MOTION_DOT":1.22e-6,"MEAN_MOTION_DDOT":0},{"OBJECT_NAME":"YAMAL 202","OBJECT_ID":"2003-053A","EPOCH":"2026-02-01T21:06:37.128960","MEAN_MOTION":1.00271556,"ECCENTRICITY":0.0006387,"INCLINATION":6.0009,"RA_OF_ASC_NODE":72.603,"ARG_OF_PERICENTER":217.0324,"MEAN_ANOMALY":322.5441,"EPHEMERIS_TYPE":0,"CLASSIFICATION_TYPE":"U","NORAD_CAT_ID":28089,"ELEMENT_SET_NO":999,"REV_AT_EPOCH":8134,"BSTAR":0,"MEAN_MOTION_DOT":-9.3e-7,"MEAN_MOTION_DDOT":0},{"OBJECT_NAME":"UFO 11 (USA 174)","OBJECT_ID":"2003-057A","EPOCH":"2026-02-01T20:47:51.588384","MEAN_MOTION":1.00272448,"ECCENTRICITY":0.00039776,"INCLINATION":8.7938,"RA_OF_ASC_NODE":34.4723,"ARG_OF_PERICENTER":264.5064,"MEAN_ANOMALY":220.4333,"EPHEMERIS_TYPE":0,"CLASSIFICATION_TYPE":"U","NORAD_CAT_ID":28117,"ELEMENT_SET_NO":999,"REV_AT_EPOCH":8109,"BSTAR":0,"MEAN_MOTION_DOT":-1.13e-6,"MEAN_MOTION_DDOT":0},{"OBJECT_NAME":"USA 176 (DSP 22)","OBJECT_ID":"2004-004A","EPOCH":"2026-02-01T10:04:39.550080","MEAN_MOTION":1.00275573,"ECCENTRICITY":0.00030072,"INCLINATION":11.877,"RA_OF_ASC_NODE":27.0577,"ARG_OF_PERICENTER":260.9777,"MEAN_ANOMALY":258.106,"EPHEMERIS_TYPE":0,"CLASSIFICATION_TYPE":"U","NORAD_CAT_ID":28158,"ELEMENT_SET_NO":999,"REV_AT_EPOCH":3157,"BSTAR":0,"MEAN_MOTION_DOT":-1.69e-6,"MEAN_MOTION_DDOT":0},{"OBJECT_NAME":"ABS-4 (MOBISAT-1)","OBJECT_ID":"2004-007A","EPOCH":"2026-02-01T17:57:21.412800","MEAN_MOTION":1.00269923,"ECCENTRICITY":0.0005332,"INCLINATION":5.6986,"RA_OF_ASC_NODE":73.6745,"ARG_OF_PERICENTER":241.259,"MEAN_ANOMALY":147.3154,"EPHEMERIS_TYPE":0,"CLASSIFICATION_TYPE":"U","NORAD_CAT_ID":28184,"ELEMENT_SET_NO":999,"REV_AT_EPOCH":5098,"BSTAR":0,"MEAN_MOTION_DOT":2.8e-7,"MEAN_MOTION_DDOT":0},{"OBJECT_NAME":"EUTELSAT 139 WEST A","OBJECT_ID":"2004-008A","EPOCH":"2026-02-01T16:26:03.148224","MEAN_MOTION":1.00842211,"ECCENTRICITY":0.00026012,"INCLINATION":5.4856,"RA_OF_ASC_NODE":73.6561,"ARG_OF_PERICENTER":152.4333,"MEAN_ANOMALY":52.2422,"EPHEMERIS_TYPE":0,"CLASSIFICATION_TYPE":"U","NORAD_CAT_ID":28187,"ELEMENT_SET_NO":999,"REV_AT_EPOCH":7999,"BSTAR":0,"MEAN_MOTION_DOT":-2.06e-6,"MEAN_MOTION_DDOT":0},{"OBJECT_NAME":"AMC-11","OBJECT_ID":"2004-017A","EPOCH":"2026-02-01T21:31:04.785888","MEAN_MOTION":1.00271791,"ECCENTRICITY":0.00032679,"INCLINATION":0.049,"RA_OF_ASC_NODE":275.073,"ARG_OF_PERICENTER":39.4037,"MEAN_ANOMALY":29.2603,"EPHEMERIS_TYPE":0,"CLASSIFICATION_TYPE":"U","NORAD_CAT_ID":28252,"ELEMENT_SET_NO":999,"REV_AT_EPOCH":7950,"BSTAR":0,"MEAN_MOTION_DOT":-5.9e-7,"MEAN_MOTION_DDOT":0},{"OBJECT_NAME":"INTELSAT 10-02","OBJECT_ID":"2004-022A","EPOCH":"2026-02-01T22:02:24.283104","MEAN_MOTION":1.00269531,"ECCENTRICITY":8.759e-5,"INCLINATION":0.0153,"RA_OF_ASC_NODE":91.5029,"ARG_OF_PERICENTER":254.6658,"MEAN_ANOMALY":115.5491,"EPHEMERIS_TYPE":0,"CLASSIFICATION_TYPE":"U","NORAD_CAT_ID":28358,"ELEMENT_SET_NO":999,"REV_AT_EPOCH":7920,"BSTAR":0,"MEAN_MOTION_DOT":-2.1e-7,"MEAN_MOTION_DDOT":0}]
